CZ-2D R/B               
1 28738U 05024B   26150.54830216  .00057459  00000+0  52728-3 0  9998
2 28738  97.3497 169.1219 0005973  90.3577 269.8368 15.67546076152572
ALOS (DAICHI)           
1 28931U 06002A   26150.86968793  .00001404  00000+0  24240-3 0  9994
2 28931  98.1316 106.4926 0002020  68.7883 291.3538 14.70010638 85559
H-2A R/B                
1 28932U 06002B   26150.91553582  .00008334  00000+0  40256-3 0  9991
2 28932  98.2541 305.1872 0050048 322.4627  37.3114 15.17830026106902
RESURS-DK 1             
1 29228U 06021A   26150.91417479  .00002942  00000+0  17166-3 0  9998
2 29228  69.9338  24.2645 0005660 309.5794  50.4871 15.13133084 99967
CZ-4B R/B               
1 29507U 06046C   26150.58356980  .00005508  00000+0  27360-3 0  9995
2 29507  97.5464 195.2457 0032075 346.3645  13.6719 15.17636460 72466
CZ-2C R/B               
1 31114U 07010B   26150.87046735  .00000122  00000+0  74739-4 0  9990
2 31114  98.4083 260.0700 0059891  56.0490 304.6361 14.20271721991385
COSMO-SKYMED 1          
1 31598U 07023A   26150.95741326  .00003792  00000+0  33457-3 0  9994
2 31598  97.8862 342.6697 0001862  88.2445 271.8989 14.97017338 27212
COSMOS 2428             
1 31792U 07029A   26150.86949351 -.00000200  00000+0 -81772-4 0  9991
2 31792  70.9389  30.8386 0007430 168.0752 192.0547 14.12932614975700
SL-16 R/B               
1 31793U 07029B   26150.93817397  .00000010  00000+0  29894-4 0  9998
2 31793  70.9759 359.4902 0002427 259.9138 205.9609 14.14846487977007
KORONAS-FOTON           
1 33504U 09003A   26150.92118581  .00014049  00000+0  29334-3 0  9997
2 33504  82.4295 190.2656 0009773 208.1429 151.9292 15.45329350958433
CZ-2C R/B               
1 37731U 11030B   26150.87633729  .00001555  00000+0  20063-3 0  9994
2 37731  97.8647 106.5769 0053862  82.9925 291.3206 14.81424416802263
H-2A R/B                
1 38341U 12025E   26150.89670018  .00003251  00000+0  29296-3 0  9993
2 38341  98.4817 124.6200 0045250  45.0049 315.4822 14.95614460760504
SHIJIAN-16 (SJ-16)      
1 39358U 13057A   26150.94618581  .00000884  00000+0  88618-4 0  9994
2 39358  74.9742  29.3375 0016993 270.2916  89.6325 14.92563568683770
SL-4 R/B                
1 39679U 14021B   26150.82213685  .00014918  00000+0  30908-3 0  9996
2 39679  51.6060 295.8181 0091856  42.9666 317.8445 15.41530416668934
ALOS-2                  
1 39766U 14029A   26150.82516345  .00005452  00000+0  73637-3 0  9999
2 39766  97.9212 248.2384 0001653  97.5428 262.5971 14.79474767649012
YAOGAN-29               
1 41038U 15069A   26150.97336785  .00000797  00000+0  10457-3 0  9991
2 41038  98.0035 179.5784 0003034  84.3840 275.7719 14.83069852568071
ASTRO-H (HITOMI)        
1 41337U 16012A   26150.39036357  .00002871  00000+0  16463-3 0  9998
2 41337  30.9978 189.1205 0009461  74.2334 285.9347 15.10429984564595
HXMT (HUIYAN)           
1 42758U 17034A   26150.83375079  .00007331  00000+0  35786-3 0  9992
2 42758  43.0151 279.6601 0030727  32.8128 327.4621 15.18318368495025
SAOCOM 1A               
1 43641U 18076A   26150.92089021  .00000155  00000+0  26068-4 0  9991
2 43641  97.8881 337.9209 0001512  83.2366 276.9020 14.82159050413549
H-2A R/B                
1 43682U 18084L   26150.57458740  .00024266  00000+0  52048-3 0  9999
2 43682  98.8603  25.6258 0024680  98.6354 261.7687 15.44419424418404
SAOCOM 1B               
1 46265U 20059A   26150.95213847  .00001155  00000+0  15157-3 0  9995
2 46265  97.8883 337.0458 0001510  86.0361 274.1025 14.82158496310934
CSS (TIANHE)            
1 48274U 21035A   26150.95261966  .00020206  00000+0  24547-3 0  9998
2 48274  41.4694  66.8282 0010503 312.1056  47.8889 15.60034833290473
COSMOS 2550             
1 48865U 21056A   26151.00445601  .00006397  00000+0  20043-3 0  9996
2 48865  67.1408 151.8801 0008186 271.0717  88.9499 15.33780563276082
CZ-2C R/B               
1 52794U 22058K   26150.76939208  .00043767  00000+0  50816-3 0  9991
2 52794  50.1864 254.0663 0033825 194.1089 165.8942 15.60566005222928
CZ-2C R/B               
1 54039U 22132E   26150.88524362  .00067510  00000+0  56856-3 0  9994
2 54039  97.2905 157.1632 0017079 137.4820 222.7768 15.69441851203237
GSLV R/B                
1 54149U 22138AN  26150.94093355  .00002761  00000+0  23562-3 0  9997
2 54149  87.3789 138.7766 0020067 205.6014 154.4226 14.97171847196232
XRISM                   
1 57800U 23137A   26150.96515059  .00006358  00000+0  35252-3 0  9991
2 57800  31.0014 111.1436 0007667 151.7671 208.3384 15.12300232150252
ACS3                    
1 59588U 24077B   26150.40047394  .00002123  00000+0  16445-2 0  9999
2 59588  97.1702  73.1641 0030951  57.7525 302.6634 13.93183359105560
SZ-21 MODULE            
1 66515U 25246C   26150.78559946  .00046051  00000+0  30288-3 0  9998
2 66515  41.4749  55.5825 0006778 248.7955 111.2165 15.74824238 30994

ISS (ZARYA)             
1 25544U 98067A   26150.83995331  .00011335  00000+0  20978-3 0  9996
2 25544  51.6338  25.9780 0007215 115.7878 244.3856 15.49504954569065
POISK                   
1 36086U 09060A   26150.83995331  .00011335  00000+0  20978-3 0  9994
2 36086  51.6338  25.9780 0007215 115.7878 244.3856 15.49504954569068
CSS (TIANHE)            
1 48274U 21035A   26150.95261966  .00020206  00000+0  24547-3 0  9998
2 48274  41.4694  66.8282 0010503 312.1056  47.8889 15.60034833290473
ISS (NAUKA)             
1 49044U 21066A   26150.83995331  .00011335  00000+0  20978-3 0  9992
2 49044  51.6338  25.9780 0007215 115.7878 244.3856 15.49504954569101
FREGAT DEB              
1 49271U 11037PF  26149.13709745  .00019203  00000+0  31185-1 0  9996
2 49271  51.6260  59.1348 0916700 241.0120 109.5864 12.41815670222686
CSS (WENTIAN)           
1 53239U 22085A   26150.95261966  .00020206  00000+0  24547-3 0  9991
2 53239  41.4694  66.8282 0010503 312.1056  47.8889 15.60034833288231
CSS (MENGTIAN)          
1 54216U 22143A   26150.95261966  .00020206  00000+0  24547-3 0  9992
2 54216  41.4694  66.8282 0010503 312.1056  47.8889 15.60034833290577
HRC MONOBLOCK CAMERA    
1 66052U 98067XR  26150.85468168  .00072111  00000+0  55409-3 0  9996
2 66052  51.6259   8.0321 0002652 130.7526 229.3703 15.71374748 35272
SZ-21 MODULE            
1 66515U 25246C   26150.78559946  .00046051  00000+0  30288-3 0  9998
2 66515  41.4749  55.5825 0006778 248.7955 111.2165 15.74824238 30994
SOYUZ-MS 28             
1 66664U 25275A   26150.83995331  .00011335  00000+0  20978-3 0  9995
2 66664  51.6338  25.9780 0007215 115.7878 244.3856 15.49504954569186
DUPLEX                  
1 66906U 98067XS  26150.84160194  .00043426  00000+0  50583-3 0  9996
2 66906  51.6288  16.9812 0005004 127.4465 232.6984 15.61220560 27948
ISS OBJECT XY           
1 66912U 98067XY  26150.89962673  .00301542  00000+0  11560-2 0  9997
2 66912  51.6220   5.2622 0004987 210.3165 149.7551 15.86037337 28099
KNACKSAT-2              
1 67683U 98067XZ  26150.85297455  .00050677  00000+0  65668-3 0  9997
2 67683  51.6302  21.5644 0011151 139.9826 220.1990 15.58292004 17577
CORAL                   
1 67684U 98067YA  26148.88572086  .00179461  00000+0  14468-2 0  9998
2 67684  51.6266  27.1529 0012180 140.2856 219.9035 15.69710628 17320
GXIBA-1                 
1 67685U 98067YB  26150.87134589  .00059069  00000+0  72651-3 0  9993
2 67685  51.6293  20.9345 0012779 138.6058 221.5906 15.59582958 17583
UITMSAT-2               
1 67686U 98067YC  26150.65961033  .00079778  00000+0  88796-3 0  9998
2 67686  51.6283  21.0219 0008929 124.8660 235.3175 15.62107247 17560
LEOPARD                 
1 67687U 98067YD  26150.89117053  .00056818  00000+0  71384-3 0  9995
2 67687  51.6312  21.0800 0008960 121.7049 238.4818 15.59088581 17509
HMU-SAT2                
1 67688U 98067YE  26150.88984720  .00069146  00000+0  80645-3 0  9996
2 67688  51.6299  20.3147 0008885 123.7143 236.4699 15.60957252 17511
CREW DRAGON 12          
1 67796U 26031A   26150.83995331  .00011335  00000+0  20978-3 0  9993
2 67796  51.6338  25.9780 0007215 115.7878 244.3856 15.49504954569149
PROGRESS-MS 33          
1 68319U 26058A   26150.83995331  .00011335  00000+0  20978-3 0  9994
2 68319  51.6338  25.9780 0007215 115.7878 244.3856 15.49504954569220
CYGNUS NG-24            
1 68689U 26079A   26150.83995331  .00011335  00000+0  20978-3 0  9997
2 68689  51.6338  25.9780 0007215 115.7878 244.3856 15.49504954569264
PROGRESS-MS 34          
1 68837U 26093A   26150.83995331  .00011335  00000+0  20978-3 0  9998
2 68837  51.6338  25.9780 0007215 115.7878 244.3856 15.49504954569304
TIANZHOU-10             
1 69049U 26102A   26150.95261966  .00020206  00000+0  24547-3 0  9991
2 69049  41.4694  66.8282 0010503 312.1056  47.8889 15.60034833  3322
DRAGON CRS-34           
1 69103U 26107A   26150.83995331  .00011335  00000+0  20978-3 0  9991
2 69103  51.6338  25.9780 0007215 115.7878 244.3856 15.49504954569345
SHENZHOU-23 (SZ-23)     
1 69180U 26113A   26150.95261966  .00020206  00000+0  24547-3 0  9999
2 69180  41.4694  66.8282 0010503 312.1056  47.8889 15.60034833290461
